PHASE 3B (AO-10)        
1 14129U 83058B   20353.34181840  .00000410  00000-0  00000-0 0  9998
2 14129  25.7322 185.0164 6076028 293.5805  15.3787  2.05866556254191
UOSAT 2 (UO-11)         
1 14781U 84021B   20356.50069658  .00000120  00000-0  20782-4 0  9997
2 14781  97.5896 359.1587 0007287 314.0174  46.0440 14.83228024959554
LUSAT (LO-19)           
1 20442U 90005G   20356.43479680  .00000020  00000-0  23883-4 0  9993
2 20442  98.7178 304.5261 0011220 329.6743  30.3791 14.32971037615333
EYESAT A (AO-27)        
1 22825U 93061C   20356.45930649 -.00000009  00000-0  14382-4 0  9996
2 22825  98.9246   3.6365 0008268 185.9747 174.1337 14.30101335420549
ITAMSAT (IO-26)         
1 22826U 93061D   20356.47174543 -.00000002  00000-0  17189-4 0  9993
2 22826  98.9189   3.5757 0009038 174.0626 186.0664 14.30438691420780
RADIO ROSTO (RS-15)     
1 23439U 94085A   20356.61325691 -.00000037  00000-0  15882-3 0  9994
2 23439  64.8168 303.5771 0154993   7.2123 353.0982 11.27569751 70289
JAS-2 (FO-29)           
1 24278U 96046B   20356.46657636 -.00000026  00000-0  12907-4 0  9999
2 24278  98.5882  81.8755 0349418 250.5851 105.7220 13.53101319202170
TECHSAT 1B (GO-32)      
1 25397U 98043D   20356.45943891 -.00000006  00000-0  16816-4 0  9992
2 25397  98.7510 296.7057 0000611 178.2554 181.8627 14.23697562166162
ISS (ZARYA)             
1 25544U 98067A   20356.69103463  .00001326  00000-0  31994-4 0  9990
2 25544  51.6443 140.6985 0001565 149.9839 331.1979 15.49208408261089
PCSAT (NO-44)           
1 26931U 01043C   20356.46389058 -.00000038  00000-0  17356-4 0  9996
2 26931  67.0519  19.7857 0007345 273.4185  86.6076 14.30599751  3782
SAUDISAT 1C (SO-50)     
1 27607U 02058C   20356.48030821  .00000038  00000-0  25797-4 0  9994
2 27607  64.5537 162.5409 0029818 102.8729 257.5708 14.75693286968310
CUTE-1 (CO-55)          
1 27844U 03031E   20356.49425353  .00000049  00000-0  41653-4 0  9999
2 27844  98.6819   1.4029 0009056 230.1921 129.8461 14.22276940906689
CUBESAT XI-IV (CO-57)   
1 27848U 03031J   20356.43477489  .00000039  00000-0  37319-4 0  9997
2 27848  98.6879   1.9119 0008806 244.5159 115.5108 14.21858542906513
MOZHAYETS 4 (RS-22)     
1 27939U 03042A   20356.42444263  .00000142  00000-0  34031-4 0  9996
2 27939  98.1154 129.0692 0014198 120.7724 239.4887 14.66924749921426
CUBESAT XI-V            
1 28895U 05043F   20356.36792635  .00000160  00000-0  39622-4 0  9994
2 28895  98.0341 127.7929 0017739  54.5553 305.7302 14.63843630807957
CUTE-1.7+APD II (CO-65) 
1 32785U 08021C   20356.47870219  .00000339  00000-0  42049-4 0  9998
2 32785  97.5919 336.4652 0011758 229.0848 130.9352 14.88592555685690
DELFI-C3 (DO-64)        
1 32789U 08021G   20356.39422337  .00002099  00000-0  13904-3 0  9999
2 32789  97.3978  32.4891 0012785  40.7794 319.4389 15.08296841689986
SEEDS II (CO-66)        
1 32791U 08021J   20356.48962994  .00000389  00000-0  44465-4 0  9997
2 32791  97.5553 342.5357 0012725 192.7637 167.3262 14.91219999686257
YUBILEINY (RS-30)       
1 32953U 08025A   20356.52086263  .00000028  00000-0  12906-3 0  9996
2 32953  82.5019 161.5907 0019252   7.1955 352.9400 12.43099100570873
KKS-1 (KISEKI)          
1 33499U 09002H   20356.47470495  .00000138  00000-0  28170-4 0  9999
2 33499  98.2910 216.1984 0007899 246.1645 113.8735 14.75596901640163
SWISSCUBE               
1 35932U 09051B   20356.49660862  .00000155  00000-0  45992-4 0  9998
2 35932  98.6068 184.8263 0006517 274.5071  85.5382 14.56466028597057
BEESAT-1                
1 35933U 09051C   20356.46979554  .00000128  00000-0  39699-4 0  9994
2 35933  98.6047 186.6586 0004759 291.0028  69.0660 14.56532633597125
ITUPSAT1                
1 35935U 09051E   20356.50585433  .00000115  00000-0  37535-4 0  9993
2 35935  98.6152 186.8669 0007073 289.6876  70.3557 14.55671663596882
XIWANG-1 (HOPE-1)       
1 36122U 09072B   20356.45194212 -.00000035  00000-0  19239-4 0  9993
2 36122 100.1121 338.6670 0007762 148.5173 211.6412 13.16358122529472
JUGNU                   
1 37839U 11058B   20356.33950686  .00000286  00000-0  10448-4 0  9998
2 37839  19.9600 229.4017 0018851 288.5151 227.0871 14.12698159475240
SRMSAT                  
1 37841U 11058D   20356.16545385  .00000312  00000-0  26469-4 0  9998
2 37841  19.9726 298.6486 0012057 134.9225 252.3342 14.10681013474521
M-CUBED & EXP-1 PRIME   
1 37855U 11061F   20356.46149616  .00003395  00000-0  17149-3 0  9995
2 37855 101.7265 181.5445 0169034 239.7755 118.6628 15.06941943499366
STRAND-1                
1 39090U 13009E   20356.48545508 -.00000051  00000-0 -28179-5 0  9999
2 39090  98.4386 196.7360 0010244  88.5037 271.7322 14.35159103409510
SOMP                    
1 39134U 13015E   20356.46414411  .00002195  00000-0  10512-3 0  9990
2 39134  64.8648  30.9166 0015732 220.4697 139.5262 15.21754286424123
BEESAT-3                
1 39135U 13015F   20356.49330538  .00001735  00000-0  92378-4 0  9991
2 39135  64.8672  57.1671 0021326 210.6884 149.2997 15.18731334423619
BEESAT-2                
1 39136U 13015G   20356.48376850  .00001562  00000-0  85134-4 0  9998
2 39136  64.8761  62.8735 0031455 264.2904  95.4635 15.18117653423506
ZACUBE-1 (TSHEPISOSAT)  
1 39417U 13066B   20356.47509692  .00000400  00000-0  56082-4 0  9997
2 39417  97.5774 344.2161 0059409  26.0031 334.4146 14.81387249382729
GOMX-1                  
1 39430U 13066Q   20356.56368901  .00000310  00000-0  65251-4 0  9996
2 39430  97.8066 283.9180 0150000 315.6370  43.2883 14.59506240377099
CUBEBUG-2 (LO-74)       
1 39440U 13066AA  20356.45293065  .00000344  00000-0  54244-4 0  9990
2 39440  97.6537 328.8481 0081444  93.0752 267.9781 14.76120176380163
FUNCUBE-1 (AO-73)       
1 39444U 13066AE  20356.49899651  .00000505  00000-0  67815-4 0  9998
2 39444  97.5697 346.5561 0058294  17.3192 342.9993 14.82267199381077
UWE-3                   
1 39446U 13066AG  20356.45979354  .00000375  00000-0  55809-4 0  9990
2 39446  97.6171 335.9490 0071120  60.3620 300.4651 14.78655019380208
SPROUT                  
1 39770U 14029E   20356.57560204  .00000795  00000-0  92445-4 0  9996
2 39770  97.9066 102.2065 0010099  74.8873 285.3440 14.88073465356889
UNISAT-6                
1 40012U 14033C   20356.47295772  .00000239  00000-0  42400-4 0  9995
2 40012  97.6881 202.0830 0059416 115.2550 245.4833 14.74211533349979
DUCHIFAT-1              
1 40021U 14033M   20356.38464742  .00000696  00000-0  76002-4 0  9992
2 40021  97.9576 288.8922 0013760  36.1961 324.0185 14.91109552353746
QB50P1                  
1 40025U 14033R   20356.44893174  .00000407  00000-0  48952-4 0  9991
2 40025  97.9242 280.7899 0013535  48.4656 311.7720 14.89281133352921
NUDT-PHONESAT           
1 40900U 15049B   20356.59124049  .00003304  00000-0  13453-3 0  9991
2 40900  97.4272   5.9845 0013641  50.8635  67.7131 15.25118768291707
ZDPS 2A                 
1 40901U 15049C   20356.62283455  .00001722  00000-0  85753-4 0  9998
2 40901  97.4627 359.9225 0014976  82.2754  41.9248 15.18833618290970
ZDPS 2B                 
1 40902U 15049D   20356.60343705  .00001928  00000-0  95591-4 0  9991
2 40902  97.4638 357.1816 0015035  79.6226  36.2977 15.18844344290941
XW-2A                   
1 40903U 15049E   20356.62016355  .00002892  00000-0  65151-4 0  9992
2 40903  97.2633  45.5193 0011184 307.9011 203.7561 15.44050242295345
KAITUO 1A               
1 40904U 15049F   20356.61487642  .00000723  00000-0  41103-4 0  9995
2 40904  97.4820 354.8983 0016188  93.6556  45.2899 15.15926177290593
2015-049G               
1 40905U 15049G   20356.58008454  .00000441  00000-0  27280-4 0  9999
2 40905  97.4928 351.9926 0017259  92.1836  55.4550 15.14755125290402
XW-2C                   
1 40906U 15049H   20356.61735182  .00000922  00000-0  50811-4 0  9999
2 40906  97.4820 355.2925 0016434  84.6855  40.2390 15.16373097290614
XW-2D                   
1 40907U 15049J   20356.58466152  .00000930  00000-0  50850-4 0  9996
2 40907  97.4812 355.0025 0015784  81.8507  65.9590 15.16644654290633
LILACSAT-2              
1 40908U 15049K   20356.54045877  .00000727  00000-0  43256-4 0  9996
2 40908  97.4982 353.0558 0017523  94.2496  24.6184 15.14222749290309
XW-2F                   
1 40910U 15049M   20356.55875547  .00001464  00000-0  74257-4 0  9999
2 40910  97.4712 357.8236 0016193  71.9691  44.9348 15.18428826290720
XW-2B                   
1 40911U 15049N   20356.57805998  .00000810  00000-0  44825-4 0  9997
2 40911  97.4814 355.6933 0015673  82.9293  65.3438 15.16565606290527
KAITUO 1B               
1 40912U 15049P   20356.59065235  .00001718  00000-0  80683-4 0  9992
2 40912  97.4471   2.1568 0015922  49.0004  99.9412 15.20886704291151
TIANWANG 1C (TW-1C)     
1 40926U 15051B   20356.62753558  .00098116  00000-0  47474-3 0  9994
2 40926  97.0544  50.7883 0004279  97.4557  55.1208 15.82246499296415
TIANWANG 1A (TW-1A)     
1 40928U 15051D   20356.61269659  .00004484  00000-0  10003-3 0  9992
2 40928  97.0936  19.8499 0008700 215.4516 262.6622 15.44028762294233
LAPAN-A2                
1 40931U 15052B   20356.57434170  .00000660  00000-0  28526-5 0  9997
2 40931   5.9968  80.9059 0013282  41.1281 318.9876 14.76655891282961
E-ST@R-II               
1 41459U 16025D   20356.54126896  .00002233  00000-0  11461-3 0  9990
2 41459  98.1209 116.5523 0161680 302.0714  56.4901 15.07125718255617
AAUSAT 4                
1 41460U 16025E   20356.57578081  .00002411  00000-0  11901-3 0  9999
2 41460  98.1186 119.6355 0149850 288.5016  69.9965 15.09737664255865
NUSAT-1 (FRESCO)        
1 41557U 16033B   20356.59571188  .00002073  00000-0  76896-4 0  9997
2 41557  97.3999  85.6267 0014285 140.2430 333.8088 15.28656015254359
BEESAT-4                
1 41619U 16040W   20356.25776930  .00002303  00000-0  95931-4 0  9996
2 41619  97.2963  51.1756 0009497 235.5646 124.4695 15.24676820237851
